{
  "type": "FeatureCollection",
  "features": [
    {
      "type": "Feature",
      "properties": {
        "norad_id": 35165,
        "name": "FENGYUN 1C DEB",
        "group": "fengyun-1c-debris",
        "lat": -41.228615692048805,
        "lon": 79.4349954506201,
        "alt_km": 795.2689021873584,
        "timestamp": "2025-12-05T20:43:02.342456+00:00",
        "meta_object_name": "FENGYUN 1C DEB",
        "meta_object_id": "1999-025DMV",
        "meta_epoch": "2025-11-30T05:14:00.190464",
        "meta_mean_motion": 14.33570134,
        "meta_eccentricity": 0.00218891,
        "meta_inclination": 98.8778,
        "meta_ra_of_asc_node": 65.7738,
        "meta_arg_of_pericenter": 100.7376,
        "meta_mean_anomaly": 259.6273,
        "meta_ephemeris_type": 0,
        "meta_classification_type": "U",
        "meta_norad_cat_id": 35165,
        "meta_element_set_no": 999,
        "meta_rev_at_epoch": 89541,
        "meta_bstar": 0.0024382815,
        "meta_mean_motion_dot": 6.727e-05,
        "meta_mean_motion_ddot": 0,
        "tle_line1": "1 35165U 99025DMV 25334.21805776  .00006727  00000+0  24383-2 0  9991",
        "tle_line2": "2 35165  98.8778  65.7738 0021889 100.7376 259.6273 14.33570134895419"
      },
      "geometry": {
        "type": "Point",
        "coordinates": [
          79.4349954506201,
          -41.228615692048805
        ]
      }
    },
    {
      "type": "Feature",
      "properties": {
        "norad_id": 35167,
        "name": "FENGYUN 1C DEB",
        "group": "fengyun-1c-debris",
        "lat": 34.89172357017611,
        "lon": 159.19668274264473,
        "alt_km": 753.8324138489197,
        "timestamp": "2025-12-05T20:43:02.342466+00:00",
        "meta_object_name": "FENGYUN 1C DEB",
        "meta_object_id": "1999-025DMX",
        "meta_epoch": "2025-11-27T17:22:23.212128",
        "meta_mean_motion": 14.31084388,
        "meta_eccentricity": 0.02289339,
        "meta_inclination": 98.4496,
        "meta_ra_of_asc_node": 325.3238,
        "meta_arg_of_pericenter": 248.7447,
        "meta_mean_anomaly": 108.915,
        "meta_ephemeris_type": 0,
        "meta_classification_type": "U",
        "meta_norad_cat_id": 35167,
        "meta_element_set_no": 999,
        "meta_rev_at_epoch": 69805,
        "meta_bstar": 0.00055665644,
        "meta_mean_motion_dot": 1.904e-05,
        "meta_mean_motion_ddot": 0,
        "tle_line1": "1 35167U 99025DMX 25331.72387977  .00001904  00000+0  55666-3 0  9995",
        "tle_line2": "2 35167  98.4496 325.3238 0228933 248.7447 108.9150 14.31084388698055"
      },
      "geometry": {
        "type": "Point",
        "coordinates": [
          159.19668274264473,
          34.89172357017611
        ]
      }
    },
    {
      "type": "Feature",
      "properties": {
        "norad_id": 35169,
        "name": "FENGYUN 1C DEB",
        "group": "fengyun-1c-debris",
        "lat": -56.4429765050842,
        "lon": 28.723142304980907,
        "alt_km": 738.5621498003284,
        "timestamp": "2025-12-05T20:43:02.342476+00:00",
        "meta_object_name": "FENGYUN 1C DEB",
        "meta_object_id": "1999-025DMZ",
        "meta_epoch": "2025-12-01T21:48:02.674656",
        "meta_mean_motion": 14.5857224,
        "meta_eccentricity": 0.01524132,
        "meta_inclination": 99.1297,
        "meta_ra_of_asc_node": 218.4106,
        "meta_arg_of_pericenter": 140.367,
        "meta_mean_anomaly": 220.8786,
        "meta_ephemeris_type": 0,
        "meta_classification_type": "U",
        "meta_norad_cat_id": 35169,
        "meta_element_set_no": 999,
        "meta_rev_at_epoch": 65622,
        "meta_bstar": 0.00056882419,
        "meta_mean_motion_dot": 3.046e-05,
        "meta_mean_motion_ddot": 0,
        "tle_line1": "1 35169U 99025DMZ 25335.90836429  .00003046  00000+0  56882-3 0  9992",
        "tle_line2": "2 35169  99.1297 218.4106 0152413 140.3670 220.8786 14.58572240656224"
      },
      "geometry": {
        "type": "Point",
        "coordinates": [
          28.723142304980907,
          -56.4429765050842
        ]
      }
    },
    {
      "type": "Feature",
      "properties": {
        "norad_id": 35171,
        "name": "FENGYUN 1C DEB",
        "group": "fengyun-1c-debris",
        "lat": 74.04975400527907,
        "lon": 97.67201585529088,
        "alt_km": 918.7775958368193,
        "timestamp": "2025-12-05T20:43:02.342486+00:00",
        "meta_object_name": "FENGYUN 1C DEB",
        "meta_object_id": "1999-025DNB",
        "meta_epoch": "2025-12-02T16:36:38.601216",
        "meta_mean_motion": 13.94893495,
        "meta_eccentricity": 0.01374906,
        "meta_inclination": 99.0081,
        "meta_ra_of_asc_node": 128.2878,
        "meta_arg_of_pericenter": 346.4429,
        "meta_mean_anomaly": 13.3054,
        "meta_ephemeris_type": 0,
        "meta_classification_type": "U",
        "meta_norad_cat_id": 35171,
        "meta_element_set_no": 999,
        "meta_rev_at_epoch": 88418,
        "meta_bstar": 0.0019263576,
        "meta_mean_motion_dot": 2.757e-05,
        "meta_mean_motion_ddot": 0,
        "tle_line1": "1 35171U 99025DNB 25336.69211344  .00002757  00000+0  19264-2 0  9995",
        "tle_line2": "2 35171  99.0081 128.2878 0137490 346.4429  13.3054 13.94893495884188"
      },
      "geometry": {
        "type": "Point",
        "coordinates": [
          97.67201585529088,
          74.04975400527907
        ]
      }
    },
    {
      "type": "Feature",
      "properties": {
        "norad_id": 35173,
        "name": "FENGYUN 1C DEB",
        "group": "fengyun-1c-debris",
        "lat": 22.025195499488518,
        "lon": 47.6334795965752,
        "alt_km": 1439.8525286059285,
        "timestamp": "2025-12-05T20:43:02.342496+00:00",
        "meta_object_name": "FENGYUN 1C DEB",
        "meta_object_id": "1999-025DND",
        "meta_epoch": "2025-11-30T23:52:38.856288",
        "meta_mean_motion": 13.37232995,
        "meta_eccentricity": 0.04900671,
        "meta_inclination": 99.7863,
        "meta_ra_of_asc_node": 46.9395,
        "meta_arg_of_pericenter": 242.1429,
        "meta_mean_anomaly": 112.9236,
        "meta_ephemeris_type": 0,
        "meta_classification_type": "U",
        "meta_norad_cat_id": 35173,
        "meta_element_set_no": 999,
        "meta_rev_at_epoch": 65672,
        "meta_bstar": 0.0023582521,
        "meta_mean_motion_dot": 2.416e-05,
        "meta_mean_motion_ddot": 0,
        "tle_line1": "1 35173U 99025DND 25334.99489417  .00002416  00000+0  23583-2 0  9997",
        "tle_line2": "2 35173  99.7863  46.9395 0490067 242.1429 112.9236 13.37232995656723"
      },
      "geometry": {
        "type": "Point",
        "coordinates": [
          47.6334795965752,
          22.025195499488518
        ]
      }
    },
    {
      "type": "Feature",
      "properties": {
        "norad_id": 35174,
        "name": "FENGYUN 1C DEB",
        "group": "fengyun-1c-debris",
        "lat": -9.857644988181507,
        "lon": 131.55981611245556,
        "alt_km": 472.7110682563771,
        "timestamp": "2025-12-05T20:43:02.342505+00:00",
        "meta_object_name": "FENGYUN 1C DEB",
        "meta_object_id": "1999-025DNE",
        "meta_epoch": "2025-11-20T15:53:09.659040",
        "meta_mean_motion": 14.97261972,
        "meta_eccentricity": 0.01569814,
        "meta_inclination": 98.9653,
        "meta_ra_of_asc_node": 295.6935,
        "meta_arg_of_pericenter": 254.7539,
        "meta_mean_anomaly": 103.6277,
        "meta_ephemeris_type": 0,
        "meta_classification_type": "U",
        "meta_norad_cat_id": 35174,
        "meta_element_set_no": 999,
        "meta_rev_at_epoch": 89835,
        "meta_bstar": 0.0019136785,
        "meta_mean_motion_dot": 0.00028569,
        "meta_mean_motion_ddot": 0,
        "tle_line1": "1 35174U 99025DNE 25324.66191735  .00028569  00000+0  19137-2 0  9991",
        "tle_line2": "2 35174  98.9653 295.6935 0156981 254.7539 103.6277 14.97261972898353"
      },
      "geometry": {
        "type": "Point",
        "coordinates": [
          131.55981611245556,
          -9.857644988181507
        ]
      }
    },
    {
      "type": "Feature",
      "properties": {
        "norad_id": 35175,
        "name": "FENGYUN 1C DEB",
        "group": "fengyun-1c-debris",
        "lat": 69.83555010661351,
        "lon": -167.33489138184214,
        "alt_km": 855.1243230517102,
        "timestamp": "2025-12-05T20:43:02.342515+00:00",
        "meta_object_name": "FENGYUN 1C DEB",
        "meta_object_id": "1999-025DNF",
        "meta_epoch": "2025-12-04T20:33:13.248576",
        "meta_mean_motion": 14.21281755,
        "meta_eccentricity": 0.0058034,
        "meta_inclination": 98.5745,
        "meta_ra_of_asc_node": 347.4288,
        "meta_arg_of_pericenter": 302.9131,
        "meta_mean_anomaly": 56.6471,
        "meta_ephemeris_type": 0,
        "meta_classification_type": "U",
        "meta_norad_cat_id": 35175,
        "meta_element_set_no": 999,
        "meta_rev_at_epoch": 61123,
        "meta_bstar": 0.00067687,
        "meta_mean_motion_dot": 1.457e-05,
        "meta_mean_motion_ddot": 0,
        "tle_line1": "1 35175U 99025DNF 25338.85640334  .00001457  00000+0  67687-3 0  9993",
        "tle_line2": "2 35175  98.5745 347.4288 0058034 302.9131  56.6471 14.21281755611234"
      },
      "geometry": {
        "type": "Point",
        "coordinates": [
          -167.33489138184214,
          69.83555010661351
        ]
      }
    }
  ]
}